{"type": "FeatureCollection", "features": [ {"type": "Feature", "properties": {"norad_id": 39778, "name": "IRIDIUM 33 DEB", "group": "iridium-33-debris", "lat": -82.93196515387625, "lon": -108.65604980002962, "alt_km": 721.6778418672893, "timestamp": "2025-12-18T17:50:15.340862+00:00", "meta": {"OBJECT_NAME": "IRIDIUM 33 DEB", "OBJECT_ID": "1997-051AAK", "EPOCH": "2025-12-17T20:48:40.668768", "MEAN_MOTION": 14.54297743, "ECCENTRICITY": 0.00074233, "INCLINATION": 86.3777, "RA_OF_ASC_NODE": 41.0001, "ARG_OF_PERICENTER": 26.4283, "MEAN_ANOMALY": 333.7301, "EPHEMERIS_TYPE": 0, "CLASSIFICATION_TYPE": "U", "NORAD_CAT_ID": 39778, "ELEMENT_SET_NO": 999, "REV_AT_EPOCH": 60767, "BSTAR": 0.00063807491, "MEAN_MOTION_DOT": 2.727e-05, "MEAN_MOTION_DDOT": 0}, "tle": {"line1": "1 39778U 97051AAK 25351.86713737  .00002727  00000+0  63807-3 0  9998", "line2": "2 39778  86.3777  41.0001 0007423  26.4283 333.7301 14.54297743607673"}}, "geometry": {"type": "Point", "coordinates": [-108.65604980002962, -82.93196515387625]}}, {"type": "Feature", "properties": {"norad_id": 39781, "name": "IRIDIUM 33 DEB", "group": "iridium-33-debris", "lat": 16.853099976943223, "lon": -103.39325041671532, "alt_km": 890.4130338082068, "timestamp": "2025-12-18T17:50:15.340873+00:00", "meta": {"OBJECT_NAME": "IRIDIUM 33 DEB", "OBJECT_ID": "1997-051AAN", "EPOCH": "2025-12-15T00:15:44.903232", "MEAN_MOTION": 14.2070789, "ECCENTRICITY": 0.01756389, "INCLINATION": 86.371, "RA_OF_ASC_NODE": 257.043, "ARG_OF_PERICENTER": 266.0338, "MEAN_ANOMALY": 111.7662, "EPHEMERIS_TYPE": 0, "CLASSIFICATION_TYPE": "U", "NORAD_CAT_ID": 39781, "ELEMENT_SET_NO": 999, "REV_AT_EPOCH": 8139, "BSTAR": 0.0031777078, "MEAN_MOTION_DOT": 8.021e-05, "MEAN_MOTION_DDOT": 0}, "tle": {"line1": "1 39781U 97051AAN 25349.01093638  .00008021  00000+0  31777-2 0  9990", "line2": "2 39781  86.3710 257.0430 0175638 266.0338 111.7662 14.20707890 81397"}}, "geometry": {"type": "Point", "coordinates": [-103.39325041671532, 16.853099976943223]}}, {"type": "Feature", "properties": {"norad_id": 40996, "name": "IRIDIUM 33 DEB", "group": "iridium-33-debris", "lat": 18.651246171627573, "lon": -0.16120338497826722, "alt_km": 570.70318458565, "timestamp": "2025-12-18T17:50:15.340887+00:00", "meta": {"OBJECT_NAME": "IRIDIUM 33 DEB", "OBJECT_ID": "1997-051ABJ", "EPOCH": "2025-12-18T00:14:16.083168", "MEAN_MOTION": 14.9656984, "ECCENTRICITY": 0.00115339, "INCLINATION": 86.351, "RA_OF_ASC_NODE": 358.9473, "ARG_OF_PERICENTER": 49.1096, "MEAN_ANOMALY": 341.4497, "EPHEMERIS_TYPE": 0, "CLASSIFICATION_TYPE": "U", "NORAD_CAT_ID": 40996, "ELEMENT_SET_NO": 999, "REV_AT_EPOCH": 62567, "BSTAR": 0.0021994706, "MEAN_MOTION_DOT": 0.00025142, "MEAN_MOTION_DDOT": 0}, "tle": {"line1": "1 40996U 97051ABJ 25352.00990837  .00025142  00000+0  21995-2 0  9994", "line2": "2 40996  86.3510 358.9473 0011533  49.1096 341.4497 14.96569840625674"}}, "geometry": {"type": "Point", "coordinates": [-0.16120338497826722, 18.651246171627573]}}, {"type": "Feature", "properties": {"norad_id": 40998, "name": "IRIDIUM 33 DEB", "group": "iridium-33-debris", "lat": 84.32659531088231, "lon": 90.6387221495972, "alt_km": 727.9054477461032, "timestamp": "2025-12-18T17:50:15.340898+00:00", "meta": {"OBJECT_NAME": "IRIDIUM 33 DEB", "OBJECT_ID": "1997-051ABL", "EPOCH": "2025-12-17T22:19:42.919968", "MEAN_MOTION": 14.45114717, "ECCENTRICITY": 0.00092833, "INCLINATION": 86.383, "RA_OF_ASC_NODE": 51.4388, "ARG_OF_PERICENTER": 70.6878, "MEAN_ANOMALY": 108.7, "EPHEMERIS_TYPE": 0, "CLASSIFICATION_TYPE": "U", "NORAD_CAT_ID": 40998, "ELEMENT_SET_NO": 999, "REV_AT_EPOCH": 6756, "BSTAR": 0.00036218128, "MEAN_MOTION_DOT": 1.286e-05, "MEAN_MOTION_DDOT": 0}, "tle": {"line1": "1 40998U 97051ABL 25351.93035787  .00001286  00000+0  36218-3 0  9999", "line2": "2 40998  86.3830  51.4388 0009283  70.6878 108.7000 14.45114717 67562"}}, "geometry": {"type": "Point", "coordinates": [90.6387221495972, 84.32659531088231]}}, {"type": "Feature", "properties": {"norad_id": 46435, "name": "IRIDIUM 33 DEB", "group": "iridium-33-debris", "lat": 41.84054499998466, "lon": -165.29749485932982, "alt_km": 900.510326290404, "timestamp": "2025-12-18T17:50:15.340908+00:00", "meta": {"OBJECT_NAME": "IRIDIUM 33 DEB", "OBJECT_ID": "1997-051ABN", "EPOCH": "2025-12-13T20:22:29.882208", "MEAN_MOTION": 14.32399442, "ECCENTRICITY": 0.0208315, "INCLINATION": 86.2839, "RA_OF_ASC_NODE": 193.4722, "ARG_OF_PERICENTER": 272.7642, "MEAN_ANOMALY": 103.0816, "EPHEMERIS_TYPE": 0, "CLASSIFICATION_TYPE": "U", "NORAD_CAT_ID": 46435, "ELEMENT_SET_NO": 999, "REV_AT_EPOCH": 7932, "BSTAR": 0.009141333, "MEAN_MOTION_DOT": 0.00031559, "MEAN_MOTION_DDOT": 0}, "tle": {"line1": "1 46435U 97051ABN 25347.84895697  .00031559  00000+0  91413-2 0  9993", "line2": "2 46435  86.2839 193.4722 0208315 272.7642 103.0816 14.32399442 79328"}}, "geometry": {"type": "Point", "coordinates": [-165.29749485932982, 41.84054499998466]}}, {"type": "Feature", "properties": {"norad_id": 46734, "name": "IRIDIUM 33 DEB", "group": "iridium-33-debris", "lat": 75.32274049732314, "lon": 14.677353015031503, "alt_km": 758.6927452241534, "timestamp": "2025-12-18T17:50:15.340918+00:00", "meta": {"OBJECT_NAME": "IRIDIUM 33 DEB", "OBJECT_ID": "1997-051ABR", "EPOCH": "2025-12-16T07:16:35.707584", "MEAN_MOTION": 14.41911222, "ECCENTRICITY": 0.00381217, "INCLINATION": 86.2633, "RA_OF_ASC_NODE": 1.2995, "ARG_OF_PERICENTER": 323.6514, "MEAN_ANOMALY": 53.8246, "EPHEMERIS_TYPE": 0, "CLASSIFICATION_TYPE": "U", "NORAD_CAT_ID": 46734, "ELEMENT_SET_NO": 999, "REV_AT_EPOCH": 63062, "BSTAR": 0.00075238, "MEAN_MOTION_DOT": 2.503e-05, "MEAN_MOTION_DDOT": 0}, "tle": {"line1": "1 46734U 97051ABR 25350.30319106  .00002503  00000+0  75238-3 0  9991", "line2": "2 46734  86.2633   1.2995 0038121 323.6514  53.8246 14.41911222630621"}}, "geometry": {"type": "Point", "coordinates": [14.677353015031503, 75.32274049732314]}}, {"type": "Feature", "properties": {"norad_id": 46965, "name": "IRIDIUM 33 DEB", "group": "iridium-33-debris", "lat": -69.75414000255778, "lon": 168.04188065770268, "alt_km": 693.6001937408373, "timestamp": "2025-12-18T17:50:15.340929+00:00", "meta": {"OBJECT_NAME": "IRIDIUM 33 DEB", "OBJECT_ID": "1997-051ABX", "EPOCH": "2025-12-17T22:44:05.593344", "MEAN_MOTION": 14.6033543, "ECCENTRICITY": 0.00175877, "INCLINATION": 86.3353, "RA_OF_ASC_NODE": 338.388, "ARG_OF_PERICENTER": 314.7846, "MEAN_ANOMALY": 73.669, "EPHEMERIS_TYPE": 0, "CLASSIFICATION_TYPE": "U", "NORAD_CAT_ID": 46965, "ELEMENT_SET_NO": 999, "REV_AT_EPOCH": 62344, "BSTAR": 0.00066145351, "MEAN_MOTION_DOT": 3.224e-05, "MEAN_MOTION_DDOT": 0}, "tle": {"line1": "1 46965U 97051ABX 25351.94728696  .00003224  00000+0  66145-3 0  9994", "line2": "2 46965  86.3353 338.3880 0017587 314.7846  73.6690 14.60335430623443"}}, "geometry": {"type": "Point", "coordinates": [168.04188065770268, -69.75414000255778]}}, {"type": "Feature", "properties": {"norad_id": 46971, "name": "IRIDIUM 33 DEB", "group": "iridium-33-debris", "lat": 67.70500880598885, "lon": -20.72228180430419, "alt_km": 567.004964970024, "timestamp": "2025-12-18T17:50:15.340943+00:00", "meta": {"OBJECT_NAME": "IRIDIUM 33 DEB", "OBJECT_ID": "1997-051ACD", "EPOCH": "2025-12-18T04:46:20.926848", "MEAN_MOTION": 14.98336604, "ECCENTRICITY": 0.00026432, "INCLINATION": 86.3383, "RA_OF_ASC_NODE": 330.5483, "ARG_OF_PERICENTER": 282.6501, "MEAN_ANOMALY": 90.914, "EPHEMERIS_TYPE": 0, "CLASSIFICATION_TYPE": "U", "NORAD_CAT_ID": 46971, "ELEMENT_SET_NO": 999, "REV_AT_EPOCH": 64312, "BSTAR": 0.0022892837, "MEAN_MOTION_DOT": 0.00027356, "MEAN_MOTION_DDOT": 0}, "tle": {"line1": "1 46971U 97051ACD 25352.19885332  .00027356  00000+0  22893-2 0  9993", "line2": "2 46971  86.3383 330.5483 0002643 282.6501  90.9140 14.98336604643128"}}, "geometry": {"type": "Point", "coordinates": [-20.72228180430419, 67.70500880598885]}}, {"type": "Feature", "properties": {"norad_id": 46974, "name": "IRIDIUM 33 DEB", "group": "iridium-33-debris", "lat": -16.46239078018403, "lon": 101.55786599303693, "alt_km": 816.4116763744687, "timestamp": "2025-12-18T17:50:15.340953+00:00", "meta": {"OBJECT_NAME": "IRIDIUM 33 DEB", "OBJECT_ID": "1997-051ACG", "EPOCH": "2025-12-14T14:09:41.074272", "MEAN_MOTION": 14.44439168, "ECCENTRICITY": 0.00956816, "INCLINATION": 86.2983, "RA_OF_ASC_NODE": 104.4675, "ARG_OF_PERICENTER": 181.0289, "MEAN_ANOMALY": 179.0732, "EPHEMERIS_TYPE": 0, "CLASSIFICATION_TYPE": "U", "NORAD_CAT_ID": 46974, "ELEMENT_SET_NO": 999, "REV_AT_EPOCH": 57535, "BSTAR": 0.0034715296, "MEAN_MOTION_DOT": 0.00012692, "MEAN_MOTION_DDOT": 0}, "tle": {"line1": "1 46974U 97051ACG 25348.59005873  .00012692  00000+0  34715-2 0  9992", "line2": "2 46974  86.2983 104.4675 0095681 181.0289 179.0732 14.44439168575351"}}, "geometry": {"type": "Point", "coordinates": [101.55786599303693, -16.46239078018403]}}, {"type": "Feature", "properties": {"norad_id": 46979, "name": "IRIDIUM 33 DEB", "group": "iridium-33-debris", "lat": -69.66515937497067, "lon": -124.27430790066661, "alt_km": 592.5465905472092, "timestamp": "2025-12-18T17:50:15.340964+00:00", "meta": {"OBJECT_NAME": "IRIDIUM 33 DEB", "OBJECT_ID": "1997-051ACM", "EPOCH": "2025-12-17T21:22:35.876928", "MEAN_MOTION": 14.8988445, "ECCENTRICITY": 0.00279352, "INCLINATION": 86.3335, "RA_OF_ASC_NODE": 46.1582, "ARG_OF_PERICENTER": 204.5568, "MEAN_ANOMALY": 155.433, "EPHEMERIS_TYPE": 0, "CLASSIFICATION_TYPE": "U", "NORAD_CAT_ID": 46979, "ELEMENT_SET_NO": 999, "REV_AT_EPOCH": 35505, "BSTAR": 0.0030814972, "MEAN_MOTION_DOT": 0.00029954, "MEAN_MOTION_DDOT": 0}, "tle": {"line1": "1 46979U 97051ACM 25351.89069302  .00029954  00000+0  30815-2 0  9997", "line2": "2 46979  86.3335  46.1582 0027935 204.5568 155.4330 14.89884450355057"}}, "geometry": {"type": "Point", "coordinates": [-124.27430790066661, -69.66515937497067]}}]}